<?xml version="1.0" encoding="UTF-8"?>
<kml xmlns="http://www.opengis.net/kml/2.2" xmlns:gx="http://www.google.com/kml/ext/2.2" xmlns:kml="http://www.opengis.net/kml/2.2" xmlns:atom="http://www.w3.org/2005/Atom">
<Document id="document">
	<name>Tramo 35</name>
	<gx:CascadingStyle kml:id="__managed_style_04863B5DEE4242B56D57_normal">
		<Style>
			<IconStyle>
				<Icon>
					<href>https://earth.google.com/earth/document/icon?color=1976d2&amp;id=2000&amp;scale=4</href>
				</Icon>
				<hotSpot x="64" y="128" xunits="pixels" yunits="insetPixels"/>
			</IconStyle>
			<LabelStyle>
			</LabelStyle>
			<LineStyle>
				<color>ff2dc0fb</color>
				<width>4</width>
			</LineStyle>
			<PolyStyle>
				<color>40ffffff</color>
			</PolyStyle>
			<BalloonStyle>
				<displayMode>hide</displayMode>
			</BalloonStyle>
		</Style>
	</gx:CascadingStyle>
	<gx:CascadingStyle kml:id="__managed_style_04863B5DEE4242B56D57_highlight">
		<Style>
			<IconStyle>
				<scale>1.2</scale>
				<Icon>
					<href>https://earth.google.com/earth/document/icon?color=1976d2&amp;id=2000&amp;scale=4</href>
				</Icon>
				<hotSpot x="64" y="128" xunits="pixels" yunits="insetPixels"/>
			</IconStyle>
			<LabelStyle>
			</LabelStyle>
			<LineStyle>
				<color>ff2dc0fb</color>
				<width>6</width>
			</LineStyle>
			<PolyStyle>
				<color>40ffffff</color>
			</PolyStyle>
			<BalloonStyle>
				<displayMode>hide</displayMode>
			</BalloonStyle>
		</Style>
	</gx:CascadingStyle>
	<StyleMap id="__managed_style_04863B5DEE4242B56D57">
		<Pair>
			<key>normal</key>
			<styleUrl>#__managed_style_04863B5DEE4242B56D57_normal</styleUrl>
		</Pair>
		<Pair>
			<key>highlight</key>
			<styleUrl>#__managed_style_04863B5DEE4242B56D57_highlight</styleUrl>
		</Pair>
	</StyleMap>
	<Placemark id="06255A15E94242B56CE4">
		<name>Tramo 35</name>
		<LookAt>
			<longitude>-80.52557059092918</longitude>
			<latitude>-0.8443132613216753</latitude>
			<altitude>7.847547365457528</altitude>
			<heading>0</heading>
			<tilt>0</tilt>
			<gx:fovy>35</gx:fovy>
			<range>569.4357440721798</range>
			<altitudeMode>absolute</altitudeMode>
		</LookAt>
		<styleUrl>#__managed_style_04863B5DEE4242B56D57</styleUrl>
		<LineString>
			<coordinates>
				-80.52692938848523,-0.845664262882375,0 -80.52684280604957,-0.8454000284184803,0 -80.5260862538766,-0.8449431077474987,0 -80.52595917274144,-0.8446230061776271,0 -80.5255563213932,-0.8443536872289217,0 -80.52510883839062,-0.8441157287869394,0 -80.52500395114893,-0.8439966439773189,0 
			</coordinates>
		</LineString>
	</Placemark>
</Document>
</kml>
