<?xml version="1.0" encoding="UTF-8"?>
<kml xmlns="http://www.opengis.net/kml/2.2" xmlns:gx="http://www.google.com/kml/ext/2.2" xmlns:kml="http://www.opengis.net/kml/2.2" xmlns:atom="http://www.w3.org/2005/Atom">
<Document id="document">
	<name>Proyecto de mapa sin título</name>
	<gx:CascadingStyle kml:id="__managed_style_0696C6BA0E4206F090B0_highlight">
		<styleUrl>https://earth.google.com/balloon_components/base/1.1.0.0/card_template.kml#main</styleUrl>
		<Style>
			<IconStyle>
				<scale>1.2</scale>
				<Icon>
					<href>https://earth.google.com/earth/document/icon?color=1976d2&amp;id=2000&amp;scale=4</href>
				</Icon>
				<hotSpot x="64" y="128" xunits="pixels" yunits="insetPixels"/>
			</IconStyle>
			<LabelStyle>
			</LabelStyle>
			<LineStyle>
				<color>ff2dc0fb</color>
				<width>6</width>
			</LineStyle>
			<PolyStyle>
				<color>40ffffff</color>
			</PolyStyle>
			<BalloonStyle>
			</BalloonStyle>
		</Style>
	</gx:CascadingStyle>
	<gx:CascadingStyle kml:id="__managed_style_0696C6BA0E4206F090B0_normal">
		<styleUrl>https://earth.google.com/balloon_components/base/1.1.0.0/card_template.kml#main</styleUrl>
		<Style>
			<IconStyle>
				<Icon>
					<href>https://earth.google.com/earth/document/icon?color=1976d2&amp;id=2000&amp;scale=4</href>
				</Icon>
				<hotSpot x="64" y="128" xunits="pixels" yunits="insetPixels"/>
			</IconStyle>
			<LabelStyle>
			</LabelStyle>
			<LineStyle>
				<color>ff2dc0fb</color>
				<width>4</width>
			</LineStyle>
			<PolyStyle>
				<color>40ffffff</color>
			</PolyStyle>
			<BalloonStyle>
			</BalloonStyle>
		</Style>
	</gx:CascadingStyle>
	<StyleMap id="__managed_style_0696C6BA0E4206F090B0">
		<Pair>
			<key>normal</key>
			<styleUrl>#__managed_style_0696C6BA0E4206F090B0_normal</styleUrl>
		</Pair>
		<Pair>
			<key>highlight</key>
			<styleUrl>#__managed_style_0696C6BA0E4206F090B0_highlight</styleUrl>
		</Pair>
	</StyleMap>
	<Placemark id="04D4AAB01F4206F09036">
		<name>Tramo 26</name>
		<LookAt>
			<longitude>-80.43118109424087</longitude>
			<latitude>-0.9055112462144319</latitude>
			<altitude>18.11841865446059</altitude>
			<heading>0</heading>
			<tilt>0</tilt>
			<gx:fovy>30.00000000037474</gx:fovy>
			<range>1281.342615332105</range>
			<altitudeMode>absolute</altitudeMode>
		</LookAt>
		<styleUrl>#__managed_style_0696C6BA0E4206F090B0</styleUrl>
		<LineString>
			<coordinates>
				-80.43473234224474,-0.9131517308479087,0 -80.43448530674759,-0.9104105307352598,0 -80.43443121113702,-0.9094314074609102,0 -80.43423122026536,-0.9091642680904611,0 -80.4341185265158,-0.9088975806433521,0 -80.43404668085488,-0.9085018697017666,0 -80.43374866259151,-0.907963758127322,0 -80.43325325708972,-0.9073238519153479,0 -80.43295487474234,-0.9071745858654796,0 -80.43229072557251,-0.9067672109192549,0 -80.43041726727213,-0.9057209814416577,0 
			</coordinates>
		</LineString>
	</Placemark>
	<Placemark id="08E20CA3F34206F25BE4">
		<name>Tramo 27</name>
		<LookAt>
			<longitude>-80.42620627782864</longitude>
			<latitude>-0.8972046285630322</latitude>
			<altitude>22.13840700403026</altitude>
			<heading>0</heading>
			<tilt>0</tilt>
			<gx:fovy>30.00000000037474</gx:fovy>
			<range>201.8041822943997</range>
			<altitudeMode>absolute</altitudeMode>
		</LookAt>
		<styleUrl>#__managed_style_0696C6BA0E4206F090B0</styleUrl>
		<LineString>
			<coordinates>
				-80.43045817561226,-0.9052064441556036,0 -80.43162167535205,-0.9030884976614746,0 -80.43243158013499,-0.901297459944973,0 -80.43232226860752,-0.9010117956810094,0 -80.42950952512022,-0.9002990137669341,0 -80.42710262780794,-0.8983923625126289,0 -80.42671577198071,-0.8979709381311066,0 -80.42629831974891,-0.8974551614701938,0 -80.42610741219654,-0.897213940848409,0 
			</coordinates>
		</LineString>
	</Placemark>
</Document>
</kml>
