<?xml version="1.0" encoding="UTF-8"?>
<kml xmlns="http://www.opengis.net/kml/2.2" xmlns:gx="http://www.google.com/kml/ext/2.2" xmlns:kml="http://www.opengis.net/kml/2.2" xmlns:atom="http://www.w3.org/2005/Atom">
<Document id="document">
	<name>Proyecto de mapa sin título</name>
	<gx:CascadingStyle kml:id="__managed_style_0CC72FEB334223C95754_highlight">
		<styleUrl>https://earth.google.com/balloon_components/base/1.1.0.0/card_template.kml#main</styleUrl>
		<Style>
			<IconStyle>
				<scale>1.2</scale>
				<Icon>
					<href>https://earth.google.com/earth/document/icon?color=1976d2&amp;id=2000&amp;scale=4</href>
				</Icon>
				<hotSpot x="64" y="128" xunits="pixels" yunits="insetPixels"/>
			</IconStyle>
			<LabelStyle>
			</LabelStyle>
			<LineStyle>
				<color>ff2dc0fb</color>
				<width>6</width>
			</LineStyle>
			<PolyStyle>
				<color>40ffffff</color>
			</PolyStyle>
			<BalloonStyle>
			</BalloonStyle>
		</Style>
	</gx:CascadingStyle>
	<gx:CascadingStyle kml:id="__managed_style_0CC72FEB334223C95754_normal">
		<styleUrl>https://earth.google.com/balloon_components/base/1.1.0.0/card_template.kml#main</styleUrl>
		<Style>
			<IconStyle>
				<Icon>
					<href>https://earth.google.com/earth/document/icon?color=1976d2&amp;id=2000&amp;scale=4</href>
				</Icon>
				<hotSpot x="64" y="128" xunits="pixels" yunits="insetPixels"/>
			</IconStyle>
			<LabelStyle>
			</LabelStyle>
			<LineStyle>
				<color>ff2dc0fb</color>
				<width>4</width>
			</LineStyle>
			<PolyStyle>
				<color>40ffffff</color>
			</PolyStyle>
			<BalloonStyle>
			</BalloonStyle>
		</Style>
	</gx:CascadingStyle>
	<StyleMap id="__managed_style_0CC72FEB334223C95754">
		<Pair>
			<key>normal</key>
			<styleUrl>#__managed_style_0CC72FEB334223C95754_normal</styleUrl>
		</Pair>
		<Pair>
			<key>highlight</key>
			<styleUrl>#__managed_style_0CC72FEB334223C95754_highlight</styleUrl>
		</Pair>
	</StyleMap>
	<Placemark id="0CEAA968C64223C956F8">
		<name>Tramo 34</name>
		<LookAt>
			<longitude>-80.51232360434967</longitude>
			<latitude>-0.8356477644303406</latitude>
			<altitude>8.550722845116262</altitude>
			<heading>0</heading>
			<tilt>0</tilt>
			<gx:fovy>35</gx:fovy>
			<range>256.6503554737938</range>
			<altitudeMode>absolute</altitudeMode>
		</LookAt>
		<styleUrl>#__managed_style_0CC72FEB334223C95754</styleUrl>
		<LineString>
			<coordinates>
				-80.50991090390576,-0.8479752928298218,0 -80.51019156023968,-0.8479291181524876,0 -80.5104013604475,-0.8478188451707812,0 -80.51048313065996,-0.8477761407471732,0 -80.51057581216187,-0.8477761612583702,0 -80.510817699782,-0.8478295177336248,0 -80.51091731123739,-0.8478117295972635,0 -80.51097423024599,-0.8477121322308875,0 -80.51102759182442,-0.8476587765092057,0 -80.51112006628954,-0.8476445595132868,0 -80.51134141550767,-0.8475864367663304,0 -80.51144691196075,-0.8475603911050161,0 -80.51162273947604,-0.8475669024969178,0 -80.5117951658643,-0.8475647023725829,0 -80.51191541717365,-0.8475238669173971,0 -80.51198775490072,-0.8472459236367331,0 -80.51200982917956,-0.8471419235703712,0 -80.51211396362424,-0.8469653366213405,0 -80.51218977975641,-0.8467854625149266,0 -80.51223405239413,-0.8466496576171275,0 -80.51235729913645,-0.8464632593338006,0 -80.51244623248505,-0.8463745332480764,0 -80.51259069009787,-0.8463353139887148,0 -80.51282695267793,-0.8463230935101762,0 -80.51318363343793,-0.846420758432791,0 -80.51351621514316,-0.8465099183263095,0 -80.51415274071519,-0.84665877943251,0 -80.51421069751378,-0.846646486869827,0 -80.51431928125902,-0.846520042245922,0 -80.51440485821088,-0.8462813758729398,0 -80.51446901734072,-0.8460579666671618,0 -80.5145809635534,-0.8457577910159182,0 -80.51463699797422,-0.8455738648686328,0 -80.51466189069365,-0.8454739971210861,0 -80.51470933832381,-0.845391596446012,0 -80.51477920297297,-0.8452665689262394,0 -80.51482956598163,-0.8451985201565234,0 -80.51486773547629,-0.8450899937555845,0 -80.5148937778719,-0.8449568169512096,0 -80.51493052786346,-0.8448344086513787,0 -80.51496050176669,-0.8447310973162614,0 -80.51498310620981,-0.844611099253737,0 -80.51498180413888,-0.8445441736689812,0 -80.51490553971041,-0.8444112700549621,0 -80.51478133762764,-0.8442304341017021,0 -80.51473792706138,-0.8441505189287281,0 -80.51472259333279,-0.8440539268582817,0 -80.51472564644288,-0.8439588474260897,0 -80.51475206686798,-0.8438889784248197,0 -80.51478962387121,-0.8437885525211863,0 -80.51483495745599,-0.8436586878858302,0 -80.51497092811593,-0.8432989096816065,0 -80.5150747580699,-0.8430638448625527,0 -80.51516027780031,-0.8428164754245359,0 -80.51526698817182,-0.8425632159330693,0 -80.51528736740335,-0.8424735982098494,0 -80.51524811359373,-0.8423674796971107,0 -80.51521395363984,-0.8422112090634462,0 -80.51521623168458,-0.8420338204681377,0 -80.51523770604953,-0.8419617694147505,0 -80.51524854611048,-0.8418404634327614,0 -80.51526993820596,-0.8417342781864101,0 -80.51534163687562,-0.8416013429520794,0 -80.51536366856111,-0.8415012669839499,0 -80.51537477193222,-0.8413388543563156,0 -80.51537533377176,-0.8411685928358563,0 -80.51539387966477,-0.8410308381429735,0 -80.51548240457269,-0.8408793587860076,0 -80.51557442821255,-0.8407729349142667,0 -80.51570128662111,-0.840672315869577,0 -80.5157831886127,-0.8406084391930565,0 -80.51583232986002,-0.8405330974273122,0 -80.51586097458566,-0.8403765484390631,0 -80.51590053899733,-0.8401678823511358,0 -80.51595065692494,-0.8400426010117258,0 -80.51607416060561,-0.8398515168405061,0 -80.51620281633726,-0.8396078316421549,0 -80.51633497647293,-0.8393330499317261,0 -80.51640965603669,-0.8392059000385296,0 -80.51649500958287,-0.8390663456533208,0 -80.51656573212891,-0.838889527776676,0 -80.51661095036017,-0.8387681552373942,0 -80.51662362516862,-0.8386516124342758,0 -80.51664391626232,-0.8384944775615456,0 -80.51665410079748,-0.8382798855080558,0 -80.51667572795557,-0.8381099151250145,0 -80.51667572539125,-0.8379492565270177,0 -80.51666954545904,-0.8378195067512553,0 -80.51669115826216,-0.8377207013656512,0 -80.51670634367186,-0.8376024024483079,0 -80.51669397573288,-0.8374880333491186,0 -80.51670711674771,-0.8373917676477181,0 -80.51672034768417,-0.8372785817445697,0 -80.51673868473573,-0.8371560161197107,0 -80.51618867093141,-0.8369633314903466,0 -80.51572296765195,-0.8367826902704145,0 -80.51531367319829,-0.8365983447153645,0 -80.51488108690633,-0.8364223349422346,0 -80.51452444742664,-0.8362757266282868,0 -80.51424887483883,-0.8361543863182731,0 -80.51418300141684,-0.8364577570627091,0 -80.51416506126959,-0.8365792271752468,0 -80.51365180735343,-0.8363715669420242,0 -80.51314474987558,-0.8361115648510248,0 -80.51268970023949,-0.8358905643900932,0 -80.51236004098209,-0.8357345601250038,0 
			</coordinates>
		</LineString>
	</Placemark>
</Document>
</kml>
